[{"OBJECT_NAME":"STARLINK-31416","OBJECT_ID":"2024-060H","EPOCH":"2026-03-09T13:38:16.874304","MEAN_MOTION":15.27606821,"ECCENTRICITY":0.00012869,"INCLINATION":43.0026,"RA_OF_ASC_NODE":260.5943,"ARG_OF_PERICENTER":274.5772,"MEAN_ANOMALY":85.4932,"EPHEMERIS_TYPE":0,"CLASSIFICATION_TYPE":"U","NORAD_CAT_ID":59355,"ELEMENT_SET_NO":999,"REV_AT_EPOCH":11004,"BSTAR":-0.00030158559,"MEAN_MOTION_DOT":-8.558e-5,"MEAN_MOTION_DDOT":0},{"OBJECT_NAME":"KUIPER-00204","OBJECT_ID":"2025-301N","EPOCH":"2026-03-09T09:32:32.981280","MEAN_MOTION":15.260884,"ECCENTRICITY":0.00030716,"INCLINATION":51.887,"RA_OF_ASC_NODE":71.6415,"ARG_OF_PERICENTER":354.8934,"MEAN_ANOMALY":5.2016,"EPHEMERIS_TYPE":0,"CLASSIFICATION_TYPE":"U","NORAD_CAT_ID":67145,"ELEMENT_SET_NO":999,"REV_AT_EPOCH":1373,"BSTAR":0.00079568218,"MEAN_MOTION_DOT":0.00020516,"MEAN_MOTION_DDOT":0}]
